NORAD_CAT_ID,OBJECT_NAME,OBJECT_TYPE,EPOCH,MEAN_MOTION,ECCENTRICITY,INCLINATION,RA_OF_ASC_NODE,ARG_OF_PERICENTER,MEAN_ANOMALY,BSTAR,MEAN_MOTION_DOT,MEAN_MOTION_DDOT,TLE_LINE0,TLE_LINE1,TLE_LINE2,SEMIMAJOR_AXIS,PERIOD,APOGEE,PERIGEE,DECAYED
53924.0,STARLINK-5001,PAYLOAD,2024-02-15 20:28:21,15.08838816,0.0001552,53.2152,88.6384,103.2313,256.8852,0.00010967,1.458e-05,0.0,0 STARLINK-5001,1 53924U 22119AQ  24046.85302173  .00001458  00000-0  10967-3 0  9997,2 53924  53.2152  88.6384 0001552 103.2313 256.8852 15.08838816 78241,6917.884,95.438,540.823,538.675,0.0
53924.0,STARLINK-5001,PAYLOAD,2024-02-16 12:22:12,15.08853956,0.0001561,53.2164,85.665,99.7159,260.401,0.00081313,0.00012682,0.0,0 STARLINK-5001,1 53924U 22119AQ  24047.51541988  .00012682  00000-0  81313-3 0  9994,2 53924  53.2164  85.6650 0001561  99.7159 260.4010 15.08853956 77927,6917.838,95.437,540.783,538.623,0.0
53924.0,STARLINK-5001,PAYLOAD,2024-02-17 02:40:40,15.08840412,0.0001547,53.2164,82.9878,97.8183,262.2985,0.00033471,5.043e-05,0.0,0 STARLINK-5001,1 53924U 22119AQ  24048.11158531  .00005043  00000-0  33471-3 0  9994,2 53924  53.2164  82.9878 0001547  97.8183 262.2985 15.08840412 78014,6917.879,95.438,540.814,538.674,0.0
53924.0,STARLINK-5001,PAYLOAD,2024-02-17 12:12:59,15.08842803,0.0001471,53.2166,81.2042,86.9933,273.1228,0.00035774,5.41e-05,0.0,0 STARLINK-5001,1 53924U 22119AQ  24048.50902613  .00005410  00000-0  35774-3 0  9991,2 53924  53.2166  81.2042 0001471  86.9933 273.1228 15.08842803 78498,6917.872,95.437,540.754,538.719,0.0
53924.0,STARLINK-5001,PAYLOAD,2024-02-17 18:34:32,15.08838537,0.0001536,53.217,80.0146,84.5815,275.5353,0.00023911,3.519e-05,0.0,0 STARLINK-5001,1 53924U 22119AQ  24048.77398827  .00003519  00000-0  23911-3 0  9994,2 53924  53.2170  80.0146 0001536  84.5815 275.5353 15.08838537 78539,6917.885,95.438,540.812,538.687,0.0
53924.0,STARLINK-5001,PAYLOAD,2024-02-18 02:31:28,15.08840182,0.0001548,53.2169,78.5276,83.9319,276.185,0.00028452,4.243e-05,0.0,0 STARLINK-5001,1 53924U 22119AQ  24049.10518879  .00004243  00000-0  28452-3 0  9993,2 53924  53.2169  78.5276 0001548  83.9319 276.1850 15.08840182 78165,6917.88,95.438,540.816,538.674,0.0
53924.0,STARLINK-5001,PAYLOAD,2024-02-18 08:53:00,15.08851141,0.0001563,53.2169,77.3392,84.9944,275.1227,0.00058588,9.051e-05,0.0,0 STARLINK-5001,1 53924U 22119AQ  24049.37014624  .00009051  00000-0  58588-3 0  9996,2 53924  53.2169  77.3392 0001563  84.9944 275.1227 15.08851141 78628,6917.846,95.437,540.793,538.63,0.0
53924.0,STARLINK-5001,PAYLOAD,2024-02-18 18:25:19,15.08845782,0.0001505,53.2161,75.5558,81.5011,278.6152,0.00049204,7.553e-05,0.0,0 STARLINK-5001,1 53924U 22119AQ  24049.76758740  .00007553  00000-0  49204-3 0  9993,2 53924  53.2161  75.5558 0001505  81.5011 278.6152 15.08845782 78683,6917.863,95.437,540.769,538.687,0.0
53924.0,STARLINK-5001,PAYLOAD,2024-02-19 08:43:47,15.08840416,0.0001833,53.218,72.8832,99.7935,260.3264,0.00011143,1.486e-05,0.0,0 STARLINK-5001,1 53924U 22119AQ  24050.36374952  .00001486  00000-0  11143-3 0  9990,2 53924  53.2180  72.8832 0001833  99.7935 260.3264 15.08840416 78354,6917.879,95.438,541.012,538.476,0.0
53924.0,STARLINK-5001,PAYLOAD,2024-02-19 18:16:06,15.08841174,0.0001555,53.2166,71.0971,91.7213,268.3957,9.5682e-05,1.235e-05,0.0,0 STARLINK-5001,1 53924U 22119AQ  24050.76118877  .00001235  00000-0  95682-4 0  9999,2 53924  53.2166  71.0971 0001555  91.7213 268.3957 15.08841174 78837,6917.877,95.437,540.818,538.666,0.0
53924.0,STARLINK-5001,PAYLOAD,2024-02-20 10:09:58,15.08841532,0.0001519,53.2174,68.1238,93.056,267.0606,6.2253e-05,7.03e-06,0.0,0 STARLINK-5001,1 53924U 22119AQ  24051.42359047  .00000703  00000-0  62253-4 0  9996,2 53924  53.2174  68.1238 0001519  93.0560 267.0606 15.08841532 78519,6917.876,95.437,540.792,538.69,0.0
53924.0,STARLINK-5001,PAYLOAD,2024-02-20 18:06:53,15.0884111,0.000152,53.2176,66.636,88.9183,271.1984,2.7724e-05,1.53e-06,0.0,0 STARLINK-5001,1 53924U 22119AQ  24051.75479093  .00000153  00000-0  27724-4 0  9999,2 53924  53.2176  66.6360 0001520  88.9183 271.1984 15.08841110 78984,6917.877,95.437,540.794,538.69,0.0
53924.0,STARLINK-5001,PAYLOAD,2024-02-21 08:25:21,15.08848014,0.0001407,53.2166,63.96,89.895,270.2203,0.00022185,3.245e-05,0.0,0 STARLINK-5001,1 53924U 22119AQ  24052.35094835  .00003245  00000-0  22185-3 0  9993,2 53924  53.2166  63.9600 0001407  89.8950 270.2203 15.08848014 79071,6917.856,95.437,540.694,538.748,0.0
53924.0,STARLINK-5001,PAYLOAD,2024-02-21 17:57:40,15.0884299,0.0001377,53.2162,62.1754,85.4943,274.6206,0.00012728,1.738e-05,0.0,0 STARLINK-5001,1 53924U 22119AQ  24052.74839029  .00001738  00000-0  12728-3 0  9995,2 53924  53.2162  62.1754 0001377  85.4943 274.6206 15.08842990 78716,6917.871,95.437,540.689,538.784,0.0
53924.0,STARLINK-5001,PAYLOAD,2024-02-22 06:40:46,15.08835084,0.0001437,53.2173,59.7946,94.1453,265.9704,5.6026e-05,6.04e-06,0.0,0 STARLINK-5001,1 53924U 22119AQ  24053.27831596  .00000604  00000-0  56026-4 0  9996,2 53924  53.2173  59.7946 0001437  94.1453 265.9704 15.08835084 78793,6917.895,95.438,540.755,538.766,0.0
53924.0,STARLINK-5001,PAYLOAD,2024-02-22 17:48:28,15.08841441,0.0001446,53.216,57.7122,96.1219,263.9938,7.7331e-05,9.43e-06,0.0,0 STARLINK-5001,1 53924U 22119AQ  24053.74199305  .00000943  00000-0  77331-4 0  9991,2 53924  53.2160  57.7122 0001446  96.1219 263.9938 15.08841441 79281,6917.876,95.437,540.741,538.741,0.0
53924.0,STARLINK-5001,PAYLOAD,2024-02-23 06:31:33,15.08845419,0.0001475,53.2153,55.3347,92.0527,268.0634,0.00014779,2.065e-05,0.0,0 STARLINK-5001,1 53924U 22119AQ  24054.27191146  .00002065  00000-0  14779-3 0  9998,2 53924  53.2153  55.3347 0001475  92.0527 268.0634 15.08845419 78945,6917.864,95.437,540.749,538.708,0.0
53924.0,STARLINK-5001,PAYLOAD,2024-02-24 03:11:33,15.08844761,0.0001644,53.2155,51.4673,95.4903,264.6276,-6.9292e-05,-1.391e-05,0.0,0 STARLINK-5001,1 53924U 22119AQ  24055.13303195 -.00001391  00000-0 -69292-4 0  9997,2 53924  53.2155  51.4673 0001644  95.4903 264.6276 15.08844761 79077,6917.866,95.437,540.868,538.594,0.0
53924.0,STARLINK-5001,PAYLOAD,2024-02-24 06:22:20,15.08839155,0.0001547,53.2161,50.8748,86.7682,273.3487,0.00014941,2.091e-05,0.0,0 STARLINK-5001,1 53924U 22119AQ  24055.26551654  .00002091  00000-0  14941-3 0  9992,2 53924  53.2161  50.8748 0001547  86.7682 273.3487 15.08839155 79510,6917.883,95.438,540.818,538.678,0.0
53924.0,STARLINK-5001,PAYLOAD,2024-02-25 04:37:44,15.08845843,0.0001688,53.2169,46.71,88.0835,272.035,0.00013149,1.806e-05,0.0,0 STARLINK-5001,1 53924U 22119AQ  24056.19287249  .00001806  00000-0  13149-3 0  9993,2 53924  53.2169  46.7100 0001688  88.0835 272.0350 15.08845843 79230,6917.863,95.437,540.895,538.56,0.0
53924.0,STARLINK-5001,PAYLOAD,2024-02-25 06:13:07,15.08849361,0.0001615,53.2168,46.4135,87.4745,272.6432,0.00019193,2.769e-05,0.0,0 STARLINK-5001,1 53924U 22119AQ  24056.25911060  .00002769  00000-0  19193-3 0  9999,2 53924  53.2168  46.4135 0001615  87.4745 272.6432 15.08849361 79660,6917.852,95.437,540.834,538.6,0.0
53924.0,STARLINK-5001,PAYLOAD,2024-02-25 22:06:58,15.08843029,0.0001663,53.2169,43.4415,91.1219,268.9963,0.00011872,1.602e-05,0.0,0 STARLINK-5001,1 53924U 22119AQ  24056.92151211  .00001602  00000-0  11872-3 0  9998,2 53924  53.2169  43.4415 0001663  91.1219 268.9963 15.08843029 79763,6917.871,95.437,540.887,538.586,0.0
53924.0,STARLINK-5001,PAYLOAD,2024-02-26 04:28:31,15.08844535,0.0001666,53.2185,42.2527,91.939,268.1793,0.00013411,1.847e-05,0.0,0 STARLINK-5001,1 53924U 22119AQ  24057.18647043  .00001847  00000-0  13411-3 0  9992,2 53924  53.2185  42.2527 0001666  91.9390 268.1793 15.08844535 79804,6917.867,95.437,540.884,538.579,0.0
53924.0,STARLINK-5001,PAYLOAD,2024-02-26 21:57:45,15.08841055,0.0002081,53.2184,38.9805,120.1069,240.0129,5.3476e-05,5.63e-06,0.0,0 STARLINK-5001,1 53924U 22119AQ  24057.91511370  .00000563  00000-0  53476-4 0  9996,2 53924  53.2184  38.9805 0002081 120.1069 240.0129 15.08841055 79912,6917.877,95.437,541.182,538.303,0.0
53924.0,STARLINK-5001,PAYLOAD,2024-02-27 02:43:55,15.08838036,0.0001543,53.2171,38.0848,107.3541,252.762,-0.00012928,-2.345e-05,0.0,0 STARLINK-5001,1 53924U 22119AQ  24058.11383299 -.00002345  00000-0 -12928-3 0  9994,2 53924  53.2171  38.0848 0001543 107.3541 252.7620 15.08838036 79528,6917.886,95.438,540.819,538.684,0.0
53924.0,STARLINK-5001,PAYLOAD,2024-02-27 07:30:05,15.08840095,0.0001516,53.2178,37.1945,94.154,265.9626,-4.1267e-05,-9.45e-06,0.0,0 STARLINK-5001,1 53924U 22119AQ  24058.31255877 -.00000945  00000-0 -41267-4 0  9999,2 53924  53.2178  37.1945 0001516  94.1540 265.9626 15.08840095 79974,6917.88,95.438,540.794,538.696,0.0
53924.0,STARLINK-5001,PAYLOAD,2024-02-27 15:27:00,15.08836236,0.0001529,53.218,35.7079,89.3054,270.8113,2.4239e-06,-2.49e-06,0.0,0 STARLINK-5001,1 53924U 22119AQ  24058.64376101 -.00000249  00000-0  24239-5 0  9996,2 53924  53.2180  35.7079 0001529  89.3054 270.8113 15.08836236 80025,6917.892,95.438,540.815,538.699,0.0
53924.0,STARLINK-5001,PAYLOAD,2024-02-28 04:10:05,15.08841457,0.0001592,53.2182,33.3289,99.863,260.2541,5.7308e-05,6.24e-06,0.0,0 STARLINK-5001,1 53924U 22119AQ  24059.17367814  .00000624  00000-0  57308-4 0  9994,2 53924  53.2182  33.3289 0001592  99.8630 260.2541 15.08841457 79689,6917.876,95.437,540.842,538.64,0.0
53924.0,STARLINK-5001,PAYLOAD,2024-02-28 05:45:28,15.08842314,0.0001973,53.2181,33.0316,105.9664,254.1546,7.8195e-05,9.57e-06,0.0,0 STARLINK-5001,1 53924U 22119AQ  24059.23991723  .00000957  00000-0  78195-4 0  9999,2 53924  53.2181  33.0316 0001973 105.9664 254.1546 15.08842314 80115,6917.873,95.437,541.103,538.373,0.0
53924.0,STARLINK-5001,PAYLOAD,2024-02-28 15:17:47,15.08836965,0.0001541,53.2177,31.2469,92.7249,267.392,0.00012443,1.693e-05,0.0,0 STARLINK-5001,1 53924U 22119AQ  24059.63736031  .00001693  00000-0  12443-3 0  9993,2 53924  53.2177  31.2469 0001541  92.7249 267.3920 15.08836965 80175,6917.89,95.438,540.821,538.689,0.0
